NORAD_CAT_ID,OBJECT_NAME,OBJECT_TYPE,EPOCH,MEAN_MOTION,ECCENTRICITY,INCLINATION,RA_OF_ASC_NODE,ARG_OF_PERICENTER,MEAN_ANOMALY,BSTAR,MEAN_MOTION_DOT,MEAN_MOTION_DDOT,TLE_LINE0,TLE_LINE1,TLE_LINE2,SEMIMAJOR_AXIS,PERIOD,APOGEE,PERIGEE,DECAYED
55652.0,STARLINK-5487,PAYLOAD,2024-01-22 22:35:58,14.98327672,0.0002658,70.0016,342.8529,254.3598,105.7268,8.0326e-05,8.66e-06,0.0,0 STARLINK-5487,1 55652U 23021AA  24022.94164924  .00000866  00000-0  80326-4 0  9993,2 55652  70.0016 342.8529 0002658 254.3598 105.7268 14.98327672 52442,6950.2,96.107,573.912,570.218,0.0
55652.0,STARLINK-5487,PAYLOAD,2024-01-23 03:24:22,14.9832632,0.0002805,70.0013,342.3486,250.3706,109.715,2.4575e-05,2e-06,0.0,0 STARLINK-5487,1 55652U 23021AA  24023.14193228  .00000200  00000-0  24575-4 0  9991,2 55652  70.0013 342.3486 0002805 250.3706 109.7150 14.98326320 52170,6950.204,96.107,574.019,570.12,0.0
55652.0,STARLINK-5487,PAYLOAD,2024-01-23 06:36:39,14.98324618,0.0002743,70.0013,342.0109,254.1281,105.9576,2.3669e-05,1.89e-06,0.0,0 STARLINK-5487,1 55652U 23021AA  24023.27545354  .00000189  00000-0  23669-4 0  9995,2 55652  70.0013 342.0109 0002743 254.1281 105.9576 14.98324618 52493,6950.21,96.107,573.981,570.168,0.0
55652.0,STARLINK-5487,PAYLOAD,2024-01-23 22:37:59,14.98329859,0.0002762,70.001,340.3282,257.6612,102.4237,-1.2406e-05,-2.41e-06,0.0,0 STARLINK-5487,1 55652U 23021AA  24023.94305217 -.00000241  00000-0 -12406-4 0  9999,2 55652  70.0010 340.3282 0002762 257.6612 102.4237 14.98329859 52599,6950.193,96.107,573.978,570.139,0.0
55652.0,STARLINK-5487,PAYLOAD,2024-01-24 03:26:23,14.98333428,0.0002844,70.0013,339.8235,258.6742,101.4097,-4.2587e-05,-6.01e-06,0.0,0 STARLINK-5487,1 55652U 23021AA  24024.14333052 -.00000601  00000-0 -42587-4 0  9993,2 55652  70.0013 339.8235 0002844 258.6742 101.4097 14.98333428 52320,6950.182,96.107,574.024,570.071,0.0
55652.0,STARLINK-5487,PAYLOAD,2024-01-24 06:38:39,14.98356706,0.0002913,70.0015,339.4871,256.236,103.8475,-0.0003509,-4.28e-05,0.0,0 STARLINK-5487,1 55652U 23021AA  24024.27684194 -.00004280  00000-0 -35090-3 0  9990,2 55652  70.0015 339.4871 0002913 256.2360 103.8475 14.98356706 52343,6950.11,96.105,574.0,569.951,0.0
55652.0,STARLINK-5487,PAYLOAD,2024-01-24 22:40:00,14.98327245,0.0002684,70.0018,337.8049,246.393,113.6947,3.9193e-05,3.75e-06,0.0,0 STARLINK-5487,1 55652U 23021AA  24024.94445073  .00000375  00000-0  39193-4 0  9993,2 55652  70.0018 337.8049 0002684 246.3930 113.6947 14.98327245 52746,6950.201,96.107,573.932,570.201,0.0
55652.0,STARLINK-5487,PAYLOAD,2024-01-25 03:28:24,14.98326808,0.0002691,70.0018,337.3,246.3541,113.7336,3.0838e-05,2.75e-06,0.0,0 STARLINK-5487,1 55652U 23021AA  24025.14473153  .00000275  00000-0  30838-4 0  9992,2 55652  70.0018 337.3000 0002691 246.3541 113.7336 14.98326808 52471,6950.203,96.107,573.938,570.197,0.0
55652.0,STARLINK-5487,PAYLOAD,2024-01-25 06:40:40,14.98326677,0.0002688,70.0017,336.9631,248.3063,111.781,2.6966e-05,2.29e-06,0.0,0 STARLINK-5487,1 55652U 23021AA  24025.27825210  .00000229  00000-0  26966-4 0  9997,2 55652  70.0017 336.9631 0002688 248.3063 111.7810 14.98326677 52796,6950.203,96.107,573.936,570.2,0.0
55652.0,STARLINK-5487,PAYLOAD,2024-01-25 22:42:01,14.98331883,0.0002655,70.0017,335.28,252.8033,107.2836,-1.3574e-05,-2.55e-06,0.0,0 STARLINK-5487,1 55652U 23021AA  24025.94585034 -.00000255  00000-0 -13574-4 0  9990,2 55652  70.0017 335.2800 0002655 252.8033 107.2836 14.98331883 52891,6950.187,96.107,573.897,570.207,0.0
55652.0,STARLINK-5487,PAYLOAD,2024-01-26 03:30:25,14.98332172,0.0002642,70.0018,334.7749,252.5353,107.5517,-7.5558e-06,-1.83e-06,0.0,0 STARLINK-5487,1 55652U 23021AA  24026.14612973 -.00000183  00000-0 -75558-5 0  9997,2 55652  70.0018 334.7749 0002642 252.5353 107.5517 14.98332172 52628,6950.186,96.107,573.887,570.215,0.0
55652.0,STARLINK-5487,PAYLOAD,2024-01-26 06:42:41,14.98332587,0.000263,70.0017,334.4382,253.6958,106.3912,-1.245e-06,-1.08e-06,0.0,0 STARLINK-5487,1 55652U 23021AA  24026.27964926 -.00000108  00000-0 -12450-5 0  9998,2 55652  70.0017 334.4382 0002630 253.6958 106.3912 14.98332587 52948,6950.185,96.107,573.878,570.222,0.0
55652.0,STARLINK-5487,PAYLOAD,2024-01-26 19:31:46,14.98324441,0.0002482,70.0021,333.0919,252.2424,107.8464,-1.1935e-05,-2.35e-06,0.0,0 STARLINK-5487,1 55652U 23021AA  24026.81373498 -.00000235  00000-0 -11935-4 0  9993,2 55652  70.0021 333.0919 0002482 252.2424 107.8464 14.98324441 52726,6950.21,96.107,573.8,570.35,0.0
55652.0,STARLINK-5487,PAYLOAD,2024-01-27 03:32:29,14.98292206,0.0002573,70.0017,332.2481,257.0385,103.0487,-0.00035356,-4.305e-05,0.0,0 STARLINK-5487,1 55652U 23021AA  24027.14756918 -.00004305  00000-0 -35356-3 0  9996,2 55652  70.0017 332.2481 0002573 257.0385 103.0487 14.98292206 52777,6950.31,96.109,573.963,570.386,0.0
55652.0,STARLINK-5487,PAYLOAD,2024-01-27 06:44:44,14.98312459,0.0002587,70.0021,331.912,264.3959,95.6905,-0.00010251,-1.315e-05,0.0,0 STARLINK-5487,1 55652U 23021AA  24027.28107356 -.00001315  00000-0 -10251-3 0  9992,2 55652  70.0021 331.9120 0002587 264.3959  95.6905 14.98312459 52797,6950.247,96.108,573.91,570.314,0.0
55652.0,STARLINK-5487,PAYLOAD,2024-01-27 21:09:56,14.98327639,0.0003674,69.9991,330.3956,279.9906,80.0838,-2.1263e-05,-3.47e-06,0.0,0 STARLINK-5487,1 55652U 23021AA  24027.88190423 -.00000347  00000-0 -21263-4 0  9995,2 55652  69.9991 330.3956 0003674 279.9906  80.0838 14.98327639 53185,6950.2,96.107,574.619,569.512,0.0
55652.0,STARLINK-5487,PAYLOAD,2024-01-28 06:46:44,14.98331636,0.0002239,70.0026,329.3874,251.8757,108.2158,8.9958e-05,9.81e-06,0.0,0 STARLINK-5487,1 55652U 23021AA  24028.28245874  .00000981  00000-0  89958-4 0  9998,2 55652  70.0026 329.3874 0002239 251.8757 108.2158 14.98331636 53240,6950.188,96.107,573.609,570.497,0.0
55652.0,STARLINK-5487,PAYLOAD,2024-01-28 22:48:04,14.98318151,0.0002727,70.0014,327.7033,259.7581,100.3271,0.00046728,5.485e-05,0.0,0 STARLINK-5487,1 55652U 23021AA  24028.95005378  .00005485  00000-0  46728-3 0  9996,2 55652  70.0014 327.7033 0002727 259.7581 100.3271 14.98318151 53347,6950.23,96.108,573.99,570.199,0.0
55652.0,STARLINK-5487,PAYLOAD,2024-01-29 05:12:36,14.98327371,0.0003292,69.9998,327.0284,270.2087,89.8695,0.00049043,5.763e-05,0.0,0 STARLINK-5487,1 55652U 23021AA  24029.21708819  .00005763  00000-0  49043-3 0  9998,2 55652  69.9998 327.0284 0003292 270.2087  89.8695 14.98327371 53089,6950.201,96.107,574.354,569.778,0.0
55652.0,STARLINK-5487,PAYLOAD,2024-01-30 05:14:37,14.98338326,0.0002556,70.0015,324.5066,268.0222,92.0644,-4.4702e-05,-6.26e-06,0.0,0 STARLINK-5487,1 55652U 23021AA  24030.21849323 -.00000626  00000-0 -44702-4 0  9999,2 55652  70.0015 324.5066 0002556 268.0222  92.0644 14.98338326 53239,6950.167,96.106,573.809,570.256,0.0
55652.0,STARLINK-5487,PAYLOAD,2024-01-30 22:52:06,14.98338634,0.0003012,70.0003,322.6537,267.1809,92.9006,-0.00014114,-1.777e-05,0.0,0 STARLINK-5487,1 55652U 23021AA  24030.95285035 -.00001777  00000-0 -14114-3 0  9995,2 55652  70.0003 322.6537 0003012 267.1809  92.9006 14.98338634 53645,6950.166,96.106,574.125,569.938,0.0
55652.0,STARLINK-5487,PAYLOAD,2024-01-31 05:16:38,14.9833813,0.0002714,70.0009,321.9799,268.8456,91.2392,-9.0017e-05,-1.167e-05,0.0,0 STARLINK-5487,1 55652U 23021AA  24031.21988850 -.00001167  00000-0 -90017-4 0  9990,2 55652  70.0009 321.9799 0002714 268.8456  91.2392 14.98338130 53389,6950.168,96.106,573.919,570.146,0.0
55652.0,STARLINK-5487,PAYLOAD,2024-02-01 03:42:31,14.98330593,0.0002728,70.0009,319.6231,277.5096,82.5754,-3.4852e-05,-5.09e-06,0.0,0 STARLINK-5487,1 55652U 23021AA  24032.15453033 -.00000509  00000-0 -34852-4 0  9998,2 55652  70.0009 319.6231 0002728 277.5096  82.5754 14.98330593 53522,6950.191,96.107,573.952,570.16,0.0
55652.0,STARLINK-5487,PAYLOAD,2024-02-01 05:18:39,14.98331591,0.0002703,70.001,319.455,278.0013,82.0839,-2.3231e-05,-3.7e-06,0.0,0 STARLINK-5487,1 55652U 23021AA  24032.22128947 -.00000370  00000-0 -23231-4 0  9994,2 55652  70.0010 319.4550 0002703 278.0013  82.0839 14.98331591 53836,6950.188,96.107,573.932,570.174,0.0
55652.0,STARLINK-5487,PAYLOAD,2024-02-01 16:31:35,14.98346068,0.0002927,70.0005,318.2778,275.5547,84.5278,-0.00028403,-3.482e-05,0.0,0 STARLINK-5487,1 55652U 23021AA  24032.68860358 -.00003482  00000-0 -28403-3 0  9995,2 55652  70.0005 318.2778 0002927 275.5547  84.5278 14.98346068 53605,6950.143,96.106,574.043,569.974,0.0
55652.0,STARLINK-5487,PAYLOAD,2024-02-02 03:44:32,14.98330828,0.00031,70.0002,317.1015,280.7566,79.3244,1.9124e-05,1.35e-06,0.0,0 STARLINK-5487,1 55652U 23021AA  24033.15592795  .00000135  00000-0  19124-4 0  9996,2 55652  70.0002 317.1015 0003100 280.7566  79.3244 14.98330828 53676,6950.19,96.107,574.21,569.901,0.0
55652.0,STARLINK-5487,PAYLOAD,2024-02-02 21:22:00,14.98329225,0.0002611,70.0004,315.2481,260.2248,99.8616,-8.7063e-06,-1.97e-06,0.0,0 STARLINK-5487,1 55652U 23021AA  24033.89028865 -.00000197  00000-0 -87063-5 0  9997,2 55652  70.0004 315.2481 0002611 260.2248  99.8616 14.98329225 54085,6950.195,96.107,573.875,570.246,0.0
55652.0,STARLINK-5487,PAYLOAD,2024-02-03 03:46:33,14.98329313,0.0002569,70.0004,314.5745,257.4293,102.6579,5.5364e-06,-2.7e-07,0.0,0 STARLINK-5487,1 55652U 23021AA  24034.15732786 -.00000027  00000-0  55364-5 0  9991,2 55652  70.0004 314.5745 0002569 257.4293 102.6579 14.98329313 53820,6950.195,96.107,573.846,570.275,0.0
55652.0,STARLINK-5487,PAYLOAD,2024-02-03 05:22:41,14.98329691,0.0002602,70.0004,314.4064,258.0367,102.0501,-2.1552e-06,-1.19e-06,0.0,0 STARLINK-5487,1 55652U 23021AA  24034.22408812 -.00000119  00000-0 -21552-5 0  9994,2 55652  70.0004 314.4064 0002602 258.0367 102.0501 14.98329691 54133,6950.194,96.107,573.867,570.25,0.0
55652.0,STARLINK-5487,PAYLOAD,2024-02-03 21:24:01,14.9833254,0.0002619,70.0002,312.723,259.0868,100.9996,2.2949e-05,1.81e-06,0.0,0 STARLINK-5487,1 55652U 23021AA  24034.89168472  .00000181  00000-0  22949-4 0  9999,2 55652  70.0002 312.7230 0002619 259.0868 100.9996 14.98332540 54235,6950.185,96.107,573.87,570.23,0.0
